NORAD_CAT_ID,OBJECT_NAME,OBJECT_TYPE,EPOCH,MEAN_MOTION,ECCENTRICITY,INCLINATION,RA_OF_ASC_NODE,ARG_OF_PERICENTER,MEAN_ANOMALY,BSTAR,MEAN_MOTION_DOT,MEAN_MOTION_DDOT,TLE_LINE0,TLE_LINE1,TLE_LINE2,SEMIMAJOR_AXIS,PERIOD,APOGEE,PERIGEE,DECAYED
53923.0,STARLINK-5004,PAYLOAD,2023-10-05 10:32:54,15.08847763,0.0001576,53.2169,332.4807,87.6556,272.4617,0.0002388,3.515e-05,0.0,0 STARLINK-5004,1 53923U 22119AP  23278.43952324  .00003515  00000-0  23880-3 0  9999,2 53923  53.2169 332.4807 0001576  87.6556 272.4617 15.08847763 57610,6917.857,95.437,540.812,538.631,0.0
53923.0,STARLINK-5004,PAYLOAD,2023-10-05 13:43:41,15.08849199,0.0001547,53.2157,331.8844,83.2607,276.8561,0.00025852,3.83e-05,0.0,0 STARLINK-5004,1 53923U 22119AP  23278.57200241  .00003830  00000-0  25852-3 0  9999,2 53923  53.2157 331.8844 0001547  83.2607 276.8561 15.08849199 58058,6917.852,95.437,540.787,538.647,0.0
53923.0,STARLINK-5004,PAYLOAD,2023-10-06 10:23:42,15.0884393,0.0001602,53.2169,328.0206,91.5624,268.5552,0.00046814,7.171e-05,0.0,0 STARLINK-5004,1 53923U 22119AP  23279.43312713  .00007171  00000-0  46814-3 0  9996,2 53923  53.2169 328.0206 0001602  91.5624 268.5552 15.08843930 57766,6917.868,95.437,540.842,538.625,0.0
53923.0,STARLINK-5004,PAYLOAD,2023-10-06 19:56:01,15.08839971,0.0001554,53.2161,326.2363,88.8091,271.3079,0.00042892,6.545e-05,0.0,0 STARLINK-5004,1 53923U 22119AP  23279.83056987  .00006545  00000-0  42892-3 0  9994,2 53923  53.2161 326.2363 0001554  88.8091 271.3079 15.08839971 58245,6917.88,95.438,540.821,538.67,0.0
53923.0,STARLINK-5004,PAYLOAD,2023-10-07 11:49:52,15.08849116,0.0001718,53.218,323.2629,99.2256,260.8931,0.00035446,5.359e-05,0.0,0 STARLINK-5004,1 53923U 22119AP  23280.49296689  .00005359  00000-0  35446-3 0  9992,2 53923  53.2180 323.2629 0001718  99.2256 260.8931 15.08849116 58342,6917.853,95.437,540.906,538.529,0.0
53923.0,STARLINK-5004,PAYLOAD,2023-10-07 19:46:48,15.08845412,0.0001472,53.2169,321.7749,84.4825,275.6335,0.00031212,4.684e-05,0.0,0 STARLINK-5004,1 53923U 22119AP  23280.82416730  .00004684  00000-0  31212-3 0  9997,2 53923  53.2169 321.7749 0001472  84.4825 275.6335 15.08845412 58392,6917.864,95.437,540.747,538.711,0.0
53923.0,STARLINK-5004,PAYLOAD,2023-10-08 10:05:16,15.08839922,0.0001654,53.2168,319.1006,89.4261,270.692,8.4644e-05,1.059e-05,0.0,0 STARLINK-5004,1 53923U 22119AP  23281.42033028  .00001059  00000-0  84644-4 0  9990,2 53923  53.2168 319.1006 0001654  89.4261 270.6920 15.08839922 58067,6917.881,95.438,540.89,538.601,0.0
53923.0,STARLINK-5004,PAYLOAD,2023-10-08 11:40:39,15.08841693,0.0001717,53.217,318.8036,91.1092,269.0096,0.00012426,1.69e-05,0.0,0 STARLINK-5004,1 53923U 22119AP  23281.48656956  .00001690  00000-0  12426-3 0  9996,2 53923  53.2170 318.8036 0001717  91.1092 269.0096 15.08841693 58492,6917.875,95.437,540.928,538.552,0.0
53923.0,STARLINK-5004,PAYLOAD,2023-10-08 19:37:35,15.08838905,0.0002011,53.218,317.3155,89.426,270.6963,6.7398e-05,7.85e-06,0.0,0 STARLINK-5004,1 53923U 22119AP  23281.81777332  .00000785  00000-0  67398-4 0  9998,2 53923  53.2180 317.3155 0002011  89.4260 270.6963 15.08838905 58543,6917.884,95.438,541.14,538.358,0.0
53923.0,STARLINK-5004,PAYLOAD,2023-10-09 09:56:03,15.08847877,0.0001708,53.2169,314.6381,90.7734,269.3454,0.00019983,2.894e-05,0.0,0 STARLINK-5004,1 53923U 22119AP  23282.41392907  .00002894  00000-0  19983-3 0  9995,2 53923  53.2169 314.6381 0001708  90.7734 269.3454 15.08847877 58632,6917.856,95.437,540.903,538.54,0.0
53923.0,STARLINK-5004,PAYLOAD,2023-10-09 14:42:12,15.088543,0.0001666,53.2161,313.7443,89.0012,271.1171,0.00032698,4.922e-05,0.0,0 STARLINK-5004,1 53923U 22119AP  23282.61264583  .00004922  00000-0  32698-3 0  9997,2 53923  53.2161 313.7443 0001666  89.0012 271.1171 15.08854300 58249,6917.837,95.437,540.854,538.549,0.0
53923.0,STARLINK-5004,PAYLOAD,2023-10-10 08:11:27,15.08836307,0.000141,53.2171,310.4746,82.2883,277.8269,5.8639e-05,6.45e-06,0.0,0 STARLINK-5004,1 53923U 22119AP  23283.34129452  .00000645  00000-0  58639-4 0  9995,2 53923  53.2171 310.4746 0001410  82.2883 277.8269 15.08836307 58358,6917.892,95.438,540.732,538.781,0.0
53923.0,STARLINK-5004,PAYLOAD,2023-10-10 19:19:09,15.08843349,0.0001699,53.2165,308.392,93.2315,266.8872,0.00015732,2.217e-05,0.0,0 STARLINK-5004,1 53923U 22119AP  23283.80497232  .00002217  00000-0  15732-3 0  9993,2 53923  53.2165 308.3920 0001699  93.2315 266.8872 15.08843349 58848,6917.87,95.437,540.91,538.56,0.0
53923.0,STARLINK-5004,PAYLOAD,2023-10-11 12:48:24,15.08845694,0.0001928,53.2171,305.1192,97.682,262.4392,0.00019392,2.8e-05,0.0,0 STARLINK-5004,1 53923U 22119AP  23284.53361191  .00002800  00000-0  19392-3 0  9992,2 53923  53.2171 305.1192 0001928  97.6820 262.4392 15.08845694 58951,6917.863,95.437,541.062,538.394,0.0
53923.0,STARLINK-5004,PAYLOAD,2023-10-12 04:42:16,15.08837609,0.0001449,53.2172,302.1519,73.0626,287.0525,9.8947e-05,1.287e-05,0.0,0 STARLINK-5004,1 53923U 22119AP  23285.19601930  .00001287  00000-0  98947-4 0  9995,2 53923  53.2172 302.1519 0001449  73.0626 287.0525 15.08837609 58635,6917.888,95.438,540.755,538.75,0.0
53923.0,STARLINK-5004,PAYLOAD,2023-10-12 07:53:02,15.08845761,0.0001639,53.2164,301.5535,94.2199,265.898,0.00029942,4.481e-05,0.0,0 STARLINK-5004,1 53923U 22119AP  23285.32849650  .00004481  00000-0  29942-3 0  9990,2 53923  53.2164 301.5535 0001639  94.2199 265.8980 15.08845761 59074,6917.863,95.437,540.862,538.594,0.0
53923.0,STARLINK-5004,PAYLOAD,2023-10-12 20:36:07,15.08844025,0.0001652,53.2159,299.1739,96.4624,263.6556,0.0002962,4.43e-05,0.0,0 STARLINK-5004,1 53923U 22119AP  23285.85841836  .00004430  00000-0  29620-3 0  9993,2 53923  53.2159 299.1739 0001652  96.4624 263.6556 15.08844025 59154,6917.868,95.437,540.876,538.59,0.0
53923.0,STARLINK-5004,PAYLOAD,2023-10-13 10:54:35,15.08852836,0.0001732,53.2168,296.4995,89.8347,270.2844,0.00041497,6.325e-05,0.0,0 STARLINK-5004,1 53923U 22119AP  23286.45457591  .00006325  00000-0  41497-3 0  9992,2 53923  53.2168 296.4995 0001732  89.8347 270.2844 15.08852836 58821,6917.841,95.437,540.904,538.508,0.0
53923.0,STARLINK-5004,PAYLOAD,2023-10-13 17:16:08,15.08846366,0.0001553,53.2161,295.3067,84.8174,275.2996,0.00027382,4.073e-05,0.0,0 STARLINK-5004,1 53923U 22119AP  23286.71953716  .00004073  00000-0  27382-3 0  9996,2 53923  53.2161 295.3067 0001553  84.8174 275.2996 15.08846366 58864,6917.861,95.437,540.8,538.652,0.0
53923.0,STARLINK-5004,PAYLOAD,2023-10-14 07:34:35,15.08857114,0.0001677,53.2164,292.6333,96.7804,263.3379,0.00041464,6.32e-05,0.0,0 STARLINK-5004,1 53923U 22119AP  23287.31569167  .00006320  00000-0  41464-3 0  9990,2 53923  53.2164 292.6333 0001677  96.7804 263.3379 15.08857114 59375,6917.828,95.436,540.853,538.533,0.0
53923.0,STARLINK-5004,PAYLOAD,2023-10-14 20:17:41,15.08837195,0.0001798,53.2165,290.2579,89.7712,270.3487,7.759e-06,-1.65e-06,0.0,0 STARLINK-5004,1 53923U 22119AP  23287.84561933 -.00000165  00000-0  77590-5 0  9994,2 53923  53.2165 290.2579 0001798  89.7712 270.3487 15.08837195 59450,6917.889,95.438,540.998,538.51,0.0
53923.0,STARLINK-5004,PAYLOAD,2023-10-15 04:14:37,15.08822267,0.000148,53.2163,288.7673,89.5497,270.5664,-0.00029189,-4.928e-05,0.0,0 STARLINK-5004,1 53923U 22119AP  23288.17682484 -.00004928  00000-0 -29189-3 0  9997,2 53923  53.2163 288.7673 0001480  89.5497 270.5664 15.08822267 59083,6917.935,95.439,540.823,538.776,0.0
53923.0,STARLINK-5004,PAYLOAD,2023-10-15 10:36:10,15.08823456,0.0001338,53.216,287.5775,85.7661,274.3484,1.0221e-05,-1.25e-06,0.0,0 STARLINK-5004,1 53923U 22119AP  23288.44178645 -.00000125  00000-0  10221-4 0  9998,2 53923  53.2160 287.5775 0001338  85.7661 274.3484 15.08823456 59547,6917.931,95.439,540.722,538.87,0.0
53923.0,STARLINK-5004,PAYLOAD,2023-10-15 16:57:42,15.08833635,0.0001403,53.2162,286.3883,91.994,268.1213,0.0003547,5.361e-05,0.0,0 STARLINK-5004,1 53923U 22119AP  23288.70674730  .00005361  00000-0  35470-3 0  9991,2 53923  53.2162 286.3883 0001403  91.9940 268.1213 15.08833635 59167,6917.9,95.438,540.735,538.794,0.0
53923.0,STARLINK-5004,PAYLOAD,2023-10-16 07:16:11,15.0886282,0.000134,53.2155,283.7118,91.1816,268.9329,0.0015453,0.00024406,0.0,0 STARLINK-5004,1 53923U 22119AP  23289.30290602  .00024406  00000-0  15453-2 0  9999,2 53923  53.2155 283.7118 0001340  91.1816 268.9329 15.08862820 59259,6917.811,95.436,540.603,538.749,0.0
53923.0,STARLINK-5004,PAYLOAD,2023-10-16 08:51:34,15.08865827,0.0001337,53.2155,283.4145,90.8841,269.2304,0.0015651,0.00024726,0.0,0 STARLINK-5004,1 53923U 22119AP  23289.36914501  .00024726  00000-0  15651-2 0  9991,2 53923  53.2155 283.4145 0001337  90.8841 269.2304 15.08865827 59680,6917.801,95.436,540.591,538.742,0.0
53923.0,STARLINK-5004,PAYLOAD,2023-10-17 07:06:57,15.08862585,0.0001403,53.2156,279.2508,101.5975,258.5175,0.0007558,0.00011768,0.0,0 STARLINK-5004,1 53923U 22119AP  23290.29649952  .00011768  00000-0  75580-3 0  9990,2 53923  53.2156 279.2508 0001403 101.5975 258.5175 15.08862585 59404,6917.811,95.436,540.647,538.706,0.0
53923.0,STARLINK-5004,PAYLOAD,2023-10-17 16:39:16,15.08855181,0.0001625,53.2161,277.4669,88.2498,271.8681,0.00086972,0.00013586,0.0,0 STARLINK-5004,1 53923U 22119AP  23290.69394095  .00013586  00000-0  86972-3 0  9996,2 53923  53.2161 277.4669 0001625  88.2498 271.8681 15.08855181 59465,6917.834,95.437,540.823,538.575,0.0
53923.0,STARLINK-5004,PAYLOAD,2023-10-17 23:00:49,15.08842889,0.0001474,53.2161,276.2776,93.3874,266.7287,0.0009138,0.00014286,0.0,0 STARLINK-5004,1 53923U 22119AP  23290.95890358  .00014286  00000-0  91380-3 0  9995,2 53923  53.2161 276.2776 0001474  93.3874 266.7287 15.08842889 59509,6917.872,95.437,540.756,538.717,0.0
53923.0,STARLINK-5004,PAYLOAD,2023-10-18 16:30:03,15.08846583,0.0001412,53.2166,273.0063,88.6249,271.4905,0.0013065,0.0002057,0.0,0 STARLINK-5004,1 53923U 22119AP  23291.68754604  .00020570  00000-0  13065-2 0  9995,2 53923  53.2166 273.0063 0001412  88.6249 271.4905 15.08846583 59610,6917.86,95.437,540.702,538.748,0.0
